{"type": "FeatureCollection", "features": [{"type": "Feature", "properties": {"norad_id": 24876, "name": "GPS BIIR-2  (PRN 13)", "group": "gnss", "lat": 18.600690044245543, "lon": 118.69566207877699, "alt_km": 19966.79001698232, "timestamp": "2025-12-21T05:44:51.828780+00:00", "meta": {"OBJECT_NAME": "GPS BIIR-2  (PRN 13)", "OBJECT_ID": "1997-035A", "EPOCH": "2025-12-20T17:02:20.499072", "MEAN_MOTION": 2.00563751, "ECCENTRICITY": 0.00968143, "INCLINATION": 55.8991, "RA_OF_ASC_NODE": 105.5572, "ARG_OF_PERICENTER": 56.9642, "MEAN_ANOMALY": 303.9398, "EPHEMERIS_TYPE": 0, "CLASSIFICATION_TYPE": "U", "NORAD_CAT_ID": 24876, "ELEMENT_SET_NO": 999, "REV_AT_EPOCH": 20837, "BSTAR": 0, "MEAN_MOTION_DOT": -3e-08, "MEAN_MOTION_DDOT": 0}, "tle": {"line1": "1 24876U 97035A   25354.70995948 -.00000003  00000+0  00000+0 0  9993", "line2": "2 24876  55.8991 105.5572 0096814  56.9642 303.9398  2.00563751208375"}}, "geometry": {"type": "Point", "coordinates": [118.69566207877699, 18.600690044245543]}}, {"type": "Feature", "properties": {"norad_id": 26360, "name": "GPS BIIR-4  (PRN 20)", "group": "gnss", "lat": 48.01003630408749, "lon": 155.5481608635643, "alt_km": 20239.529642161047, "timestamp": "2025-12-21T05:44:51.828822+00:00", "meta": {"OBJECT_NAME": "GPS BIIR-4  (PRN 20)", "OBJECT_ID": "2000-025A", "EPOCH": "2025-12-20T19:36:21.660768", "MEAN_MOTION": 2.00567097, "ECCENTRICITY": 0.00388992, "INCLINATION": 55.05, "RA_OF_ASC_NODE": 26.5112, "ARG_OF_PERICENTER": 242.7522, "MEAN_ANOMALY": 287.4237, "EPHEMERIS_TYPE": 0, "CLASSIFICATION_TYPE": "U", "NORAD_CAT_ID": 26360, "ELEMENT_SET_NO": 999, "REV_AT_EPOCH": 18769, "BSTAR": 0, "MEAN_MOTION_DOT": -6.3e-07, "MEAN_MOTION_DDOT": 0}, "tle": {"line1": "1 26360U 00025A   25354.81691737 -.00000063  00000+0  00000+0 0  9993", "line2": "2 26360  55.0500  26.5112 0038899 242.7522 287.4237  2.00567097187692"}}, "geometry": {"type": "Point", "coordinates": [155.5481608635643, 48.01003630408749]}}, {"type": "Feature", "properties": {"norad_id": 26407, "name": "GPS BIIR-5  (PRN 22)", "group": "gnss", "lat": -35.19739142662953, "lon": -167.49725313905225, "alt_km": 19861.75943610623, "timestamp": "2025-12-21T05:44:51.828842+00:00", "meta": {"OBJECT_NAME": "GPS BIIR-5  (PRN 22)", "OBJECT_ID": "2000-040A", "EPOCH": "2025-12-20T19:30:51.777792", "MEAN_MOTION": 2.00568108, "ECCENTRICITY": 0.012557, "INCLINATION": 54.889, "RA_OF_ASC_NODE": 222.248, "ARG_OF_PERICENTER": 301.9469, "MEAN_ANOMALY": 65.1307, "EPHEMERIS_TYPE": 0, "CLASSIFICATION_TYPE": "U", "NORAD_CAT_ID": 26407, "ELEMENT_SET_NO": 999, "REV_AT_EPOCH": 18637, "BSTAR": 0, "MEAN_MOTION_DOT": 7.2e-07, "MEAN_MOTION_DDOT": 0}, "tle": {"line1": "1 26407U 00040A   25354.81309928  .00000072  00000+0  00000+0 0  9999", "line2": "2 26407  54.8890 222.2480 0125570 301.9469  65.1307  2.00568108186374"}}, "geometry": {"type": "Point", "coordinates": [-167.49725313905225, -35.19739142662953]}}, {"type": "Feature", "properties": {"norad_id": 27663, "name": "GPS BIIR-8  (PRN 16)", "group": "gnss", "lat": 54.86599825797421, "lon": -44.582235724294186, "alt_km": 19871.983304290097, "timestamp": "2025-12-21T05:44:51.828856+00:00", "meta": {"OBJECT_NAME": "GPS BIIR-8  (PRN 16)", "OBJECT_ID": "2003-005A", "EPOCH": "2025-12-20T15:07:28.763328", "MEAN_MOTION": 2.00570507, "ECCENTRICITY": 0.0147742, "INCLINATION": 54.9216, "RA_OF_ASC_NODE": 222.0644, "ARG_OF_PERICENTER": 51.9121, "MEAN_ANOMALY": 319.0535, "EPHEMERIS_TYPE": 0, "CLASSIFICATION_TYPE": "U", "NORAD_CAT_ID": 27663, "ELEMENT_SET_NO": 999, "REV_AT_EPOCH": 16773, "BSTAR": 0, "MEAN_MOTION_DOT": 7.3e-07, "MEAN_MOTION_DDOT": 0}, "tle": {"line1": "1 27663U 03005A   25354.63019402  .00000073  00000+0  00000+0 0  9994", "line2": "2 27663  54.9216 222.0644 0147742  51.9121 319.0535  2.00570507167733"}}, "geometry": {"type": "Point", "coordinates": [-44.582235724294186, 54.86599825797421]}}, {"type": "Feature", "properties": {"norad_id": 28190, "name": "GPS BIIR-11 (PRN 19)", "group": "gnss", "lat": -50.581136262939324, "lon": 161.27595646017127, "alt_km": 20148.836817122174, "timestamp": "2025-12-21T05:44:51.828870+00:00", "meta": {"OBJECT_NAME": "GPS BIIR-11 (PRN 19)", "OBJECT_ID": "2004-009A", "EPOCH": "2025-12-20T02:10:39.105696", "MEAN_MOTION": 2.00560582, "ECCENTRICITY": 0.01084506, "INCLINATION": 54.979, "RA_OF_ASC_NODE": 282.9228, "ARG_OF_PERICENTER": 167.7566, "MEAN_ANOMALY": 332.1268, "EPHEMERIS_TYPE": 0, "CLASSIFICATION_TYPE": "U", "NORAD_CAT_ID": 28190, "ELEMENT_SET_NO": 999, "REV_AT_EPOCH": 15935, "BSTAR": 0, "MEAN_MOTION_DOT": -3.4e-07, "MEAN_MOTION_DDOT": 0}, "tle": {"line1": "1 28190U 04009A   25354.09073039 -.00000034  00000+0  00000+0 0  9999", "line2": "2 28190  54.9790 282.9228 0108450 167.7566 332.1268  2.00560582159351"}}, "geometry": {"type": "Point", "coordinates": [161.27595646017127, -50.581136262939324]}}, {"type": "Feature", "properties": {"norad_id": 28474, "name": "GPS BIIR-13 (PRN 02)", "group": "gnss", "lat": -39.19119421427818, "lon": -62.43064577317497, "alt_km": 19731.53444996151, "timestamp": "2025-12-21T05:44:51.828883+00:00", "meta": {"OBJECT_NAME": "GPS BIIR-13 (PRN 02)", "OBJECT_ID": "2004-045A", "EPOCH": "2025-12-20T07:31:09.755904", "MEAN_MOTION": 2.00569954, "ECCENTRICITY": 0.01709047, "INCLINATION": 55.2369, "RA_OF_ASC_NODE": 332.1012, "ARG_OF_PERICENTER": 309.5849, "MEAN_ANOMALY": 51.3395, "EPHEMERIS_TYPE": 0, "CLASSIFICATION_TYPE": "U", "NORAD_CAT_ID": 28474, "ELEMENT_SET_NO": 999, "REV_AT_EPOCH": 15484, "BSTAR": 0, "MEAN_MOTION_DOT": -7.7e-07, "MEAN_MOTION_DDOT": 0}, "tle": {"line1": "1 28474U 04045A   25354.31330736 -.00000077  00000+0  00000+0 0  9996", "line2": "2 28474  55.2369 332.1012 0170904 309.5849  51.3395  2.00569954154846"}}, "geometry": {"type": "Point", "coordinates": [-62.43064577317497, -39.19119421427818]}}, {"type": "Feature", "properties": {"norad_id": 28874, "name": "GPS BIIRM-1 (PRN 17)", "group": "gnss", "lat": -55.007884627770146, "lon": -172.77650861030887, "alt_km": 19871.35304768473, "timestamp": "2025-12-21T05:44:51.828895+00:00", "meta": {"OBJECT_NAME": "GPS BIIRM-1 (PRN 17)", "OBJECT_ID": "2005-038A", "EPOCH": "2025-12-20T01:24:11.888352", "MEAN_MOTION": 2.00578006, "ECCENTRICITY": 0.01314124, "INCLINATION": 55.0254, "RA_OF_ASC_NODE": 280.4063, "ARG_OF_PERICENTER": 293.7176, "MEAN_ANOMALY": 202.3277, "EPHEMERIS_TYPE": 0, "CLASSIFICATION_TYPE": "U", "NORAD_CAT_ID": 28874, "ELEMENT_SET_NO": 999, "REV_AT_EPOCH": 14824, "BSTAR": 0, "MEAN_MOTION_DOT": -3e-07, "MEAN_MOTION_DDOT": 0}, "tle": {"line1": "1 28874U 05038A   25354.05847093 -.00000030  00000+0  00000+0 0  9992", "line2": "2 28874  55.0254 280.4063 0131412 293.7176 202.3277  2.00578006148242"}}, "geometry": {"type": "Point", "coordinates": [-172.77650861030887, -55.007884627770146]}}, {"type": "Feature", "properties": {"norad_id": 28899, "name": "INMARSAT 4-F2 (SOUTHPAN/PRN 122)", "group": "gnss", "lat": -4.853076756859148, "lon": -40.18433219081139, "alt_km": 35780.105870135776, "timestamp": "2025-12-21T05:44:51.828909+00:00", "meta": {"OBJECT_NAME": "INMARSAT 4-F2 (SOUTHPAN/PRN 122)", "OBJECT_ID": "2005-044A", "EPOCH": "2025-12-20T11:40:38.786592", "MEAN_MOTION": 1.00271259, "ECCENTRICITY": 0.00024484, "INCLINATION": 4.8614, "RA_OF_ASC_NODE": 43.7041, "ARG_OF_PERICENTER": 227.2511, "MEAN_ANOMALY": 137.0275, "EPHEMERIS_TYPE": 0, "CLASSIFICATION_TYPE": "U", "NORAD_CAT_ID": 28899, "ELEMENT_SET_NO": 999, "REV_AT_EPOCH": 7373, "BSTAR": 0, "MEAN_MOTION_DOT": -2.4e-06, "MEAN_MOTION_DDOT": 0}, "tle": {"line1": "1 28899U 05044A   25354.48656003 -.00000240  00000+0  00000+0 0  9995", "line2": "2 28899   4.8614  43.7041 0002448 227.2511 137.0275  1.00271259 73730"}}, "geometry": {"type": "Point", "coordinates": [-40.18433219081139, -4.853076756859148]}}, {"type": "Feature", "properties": {"norad_id": 29486, "name": "GPS BIIRM-2 (PRN 31)", "group": "gnss", "lat": 6.191486609555835, "lon": -26.016621307219282, "alt_km": 20323.532792761183, "timestamp": "2025-12-21T05:44:51.828922+00:00", "meta": {"OBJECT_NAME": "GPS BIIRM-2 (PRN 31)", "OBJECT_ID": "2006-042A", "EPOCH": "2025-12-20T12:29:34.727712", "MEAN_MOTION": 2.0055388, "ECCENTRICITY": 0.01073051, "INCLINATION": 54.695, "RA_OF_ASC_NODE": 158.4322, "ARG_OF_PERICENTER": 52.1429, "MEAN_ANOMALY": 320.0368, "EPHEMERIS_TYPE": 0, "CLASSIFICATION_TYPE": "U", "NORAD_CAT_ID": 29486, "ELEMENT_SET_NO": 999, "REV_AT_EPOCH": 14081, "BSTAR": 0, "MEAN_MOTION_DOT": 6.8e-07, "MEAN_MOTION_DDOT": 0}, "tle": {"line1": "1 29486U 06042A   25354.52054083  .00000068  00000+0  00000+0 0  9999", "line2": "2 29486  54.6950 158.4322 0107305  52.1429 320.0368  2.00553880140811"}}, "geometry": {"type": "Point", "coordinates": [-26.016621307219282, 6.191486609555835]}}, {"type": "Feature", "properties": {"norad_id": 29601, "name": "GPS BIIRM-3 (PRN 12)", "group": "gnss", "lat": -38.908988405492096, "lon": 75.5491677112234, "alt_km": 20370.63786971676, "timestamp": "2025-12-21T05:44:51.828934+00:00", "meta": {"OBJECT_NAME": "GPS BIIRM-3 (PRN 12)", "OBJECT_ID": "2006-052A", "EPOCH": "2025-12-19T22:13:29.754912", "MEAN_MOTION": 2.00574126, "ECCENTRICITY": 0.00879643, "INCLINATION": 54.9691, "RA_OF_ASC_NODE": 221.1129, "ARG_OF_PERICENTER": 87.52, "MEAN_ANOMALY": 273.5849, "EPHEMERIS_TYPE": 0, "CLASSIFICATION_TYPE": "U", "NORAD_CAT_ID": 29601, "ELEMENT_SET_NO": 999, "REV_AT_EPOCH": 13981, "BSTAR": 0, "MEAN_MOTION_DOT": 7.6e-07, "MEAN_MOTION_DDOT": 0}, "tle": {"line1": "1 29601U 06052A   25353.92603883  .00000076  00000+0  00000+0 0  9999", "line2": "2 29601  54.9691 221.1129 0087964  87.5200 273.5849  2.00574126139815"}}, "geometry": {"type": "Point", "coordinates": [75.5491677112234, -38.908988405492096]}}]}